{"type": "FeatureCollection", "features": [ {"type": "Feature", "properties": {"norad_id": 34001, "name": "COSMOS 2251 DEB", "group": "cosmos-2251-debris", "lat": 28.964534688496563, "lon": 69.17732988482688, "alt_km": 780.8408736576021, "timestamp": "2025-12-25T09:48:52.682471+00:00", "meta": {"OBJECT_NAME": "COSMOS 2251 DEB", "OBJECT_ID": "1993-036GL", "EPOCH": "2025-12-25T04:41:21.207840", "MEAN_MOTION": 14.37112296, "ECCENTRICITY": 0.002047, "INCLINATION": 74.0385, "RA_OF_ASC_NODE": 258.6847, "ARG_OF_PERICENTER": 337.2182, "MEAN_ANOMALY": 147.9887, "EPHEMERIS_TYPE": 0, "CLASSIFICATION_TYPE": "U", "NORAD_CAT_ID": 34001, "ELEMENT_SET_NO": 999, "REV_AT_EPOCH": 88325, "BSTAR": 0.00017137, "MEAN_MOTION_DOT": 4.84e-06, "MEAN_MOTION_DDOT": 0}, "tle": {"line1": "1 34001U 93036GL  25359.19538435  .00000484  00000+0  17137-3 0  9998", "line2": "2 34001  74.0385 258.6847 0020470 337.2182 147.9887 14.37112296883252"}}, "geometry": {"type": "Point", "coordinates": [69.17732988482688, 28.964534688496563]}}, {"type": "Feature", "properties": {"norad_id": 34003, "name": "COSMOS 2251 DEB", "group": "cosmos-2251-debris", "lat": 30.877005593690086, "lon": 73.99259762535056, "alt_km": 1085.8887959825952, "timestamp": "2025-12-25T09:48:52.682481+00:00", "meta": {"OBJECT_NAME": "COSMOS 2251 DEB", "OBJECT_ID": "1993-036GN", "EPOCH": "2025-12-24T19:14:32.465760", "MEAN_MOTION": 13.84214835, "ECCENTRICITY": 0.02753294, "INCLINATION": 74.0775, "RA_OF_ASC_NODE": 264.8421, "ARG_OF_PERICENTER": 14.14, "MEAN_ANOMALY": 346.7234, "EPHEMERIS_TYPE": 0, "CLASSIFICATION_TYPE": "U", "NORAD_CAT_ID": 34003, "ELEMENT_SET_NO": 999, "REV_AT_EPOCH": 84592, "BSTAR": 0.0018055995, "MEAN_MOTION_DOT": 2.68e-05, "MEAN_MOTION_DDOT": 0}, "tle": {"line1": "1 34003U 93036GN  25358.80176465  .00002680  00000+0  18056-2 0  9998", "line2": "2 34003  74.0775 264.8421 0275329  14.1400 346.7234 13.84214835845923"}}, "geometry": {"type": "Point", "coordinates": [73.99259762535056, 30.877005593690086]}}, {"type": "Feature", "properties": {"norad_id": 34004, "name": "COSMOS 2251 DEB", "group": "cosmos-2251-debris", "lat": -38.392011290321165, "lon": 122.46251348811235, "alt_km": 730.3119076080702, "timestamp": "2025-12-25T09:48:52.682491+00:00", "meta": {"OBJECT_NAME": "COSMOS 2251 DEB", "OBJECT_ID": "1993-036GP", "EPOCH": "2025-12-24T21:12:02.718720", "MEAN_MOTION": 14.49115551, "ECCENTRICITY": 0.0033424, "INCLINATION": 74.0358, "RA_OF_ASC_NODE": 290.3378, "ARG_OF_PERICENTER": 301.043, "MEAN_ANOMALY": 58.7449, "EPHEMERIS_TYPE": 0, "CLASSIFICATION_TYPE": "U", "NORAD_CAT_ID": 34004, "ELEMENT_SET_NO": 999, "REV_AT_EPOCH": 88206, "BSTAR": 0.0012662, "MEAN_MOTION_DOT": 4.823e-05, "MEAN_MOTION_DDOT": 0}, "tle": {"line1": "1 34004U 93036GP  25358.88336480  .00004823  00000+0  12662-2 0  9990", "line2": "2 34004  74.0358 290.3378 0033424 301.0430  58.7449 14.49115551882066"}}, "geometry": {"type": "Point", "coordinates": [122.46251348811235, -38.392011290321165]}}, {"type": "Feature", "properties": {"norad_id": 34005, "name": "COSMOS 2251 DEB", "group": "cosmos-2251-debris", "lat": 73.19977881050315, "lon": -61.137987151630874, "alt_km": 763.0584836452645, "timestamp": "2025-12-25T09:48:52.682501+00:00", "meta": {"OBJECT_NAME": "COSMOS 2251 DEB", "OBJECT_ID": "1993-036GQ", "EPOCH": "2025-12-24T23:56:48.964416", "MEAN_MOTION": 14.40312708, "ECCENTRICITY": 0.0021207, "INCLINATION": 74.0432, "RA_OF_ASC_NODE": 190.9995, "ARG_OF_PERICENTER": 307.1606, "MEAN_ANOMALY": 176.9752, "EPHEMERIS_TYPE": 0, "CLASSIFICATION_TYPE": "U", "NORAD_CAT_ID": 34005, "ELEMENT_SET_NO": 999, "REV_AT_EPOCH": 88555, "BSTAR": 0.00010482, "MEAN_MOTION_DOT": 3.06e-06, "MEAN_MOTION_DDOT": 0}, "tle": {"line1": "1 34005U 93036GQ  25358.99778894  .00000306  00000+0  10482-3 0  9993", "line2": "2 34005  74.0432 190.9995 0021207 307.1606 176.9752 14.40312708885559"}}, "geometry": {"type": "Point", "coordinates": [-61.137987151630874, 73.19977881050315]}}, {"type": "Feature", "properties": {"norad_id": 34006, "name": "COSMOS 2251 DEB", "group": "cosmos-2251-debris", "lat": -19.17167798115491, "lon": 112.05209835157599, "alt_km": 582.3018276728972, "timestamp": "2025-12-25T09:48:52.682511+00:00", "meta": {"OBJECT_NAME": "COSMOS 2251 DEB", "OBJECT_ID": "1993-036GR", "EPOCH": "2025-12-24T18:25:22.382688", "MEAN_MOTION": 14.95558807, "ECCENTRICITY": 0.00116588, "INCLINATION": 74.0534, "RA_OF_ASC_NODE": 119.05, "ARG_OF_PERICENTER": 50.1684, "MEAN_ANOMALY": 78.6177, "EPHEMERIS_TYPE": 0, "CLASSIFICATION_TYPE": "U", "NORAD_CAT_ID": 34006, "ELEMENT_SET_NO": 999, "REV_AT_EPOCH": 88848, "BSTAR": 0.003601603, "MEAN_MOTION_DOT": 0.00040203, "MEAN_MOTION_DDOT": 0}, "tle": {"line1": "1 34006U 93036GR  25358.76762017  .00040203  00000+0  36016-2 0  9999", "line2": "2 34006  74.0534 119.0500 0011658  50.1684  78.6177 14.95558807888483"}}, "geometry": {"type": "Point", "coordinates": [112.05209835157599, -19.17167798115491]}}, {"type": "Feature", "properties": {"norad_id": 34007, "name": "COSMOS 2251 DEB", "group": "cosmos-2251-debris", "lat": -24.272625717688687, "lon": -44.91788361891377, "alt_km": 697.4975588664292, "timestamp": "2025-12-25T09:48:52.682521+00:00", "meta": {"OBJECT_NAME": "COSMOS 2251 DEB", "OBJECT_ID": "1993-036GS", "EPOCH": "2025-12-24T22:27:24.824736", "MEAN_MOTION": 14.64870558, "ECCENTRICITY": 0.004426, "INCLINATION": 74.0198, "RA_OF_ASC_NODE": 323.4174, "ARG_OF_PERICENTER": 94.3833, "MEAN_ANOMALY": 266.2395, "EPHEMERIS_TYPE": 0, "CLASSIFICATION_TYPE": "U", "NORAD_CAT_ID": 34007, "ELEMENT_SET_NO": 999, "REV_AT_EPOCH": 89258, "BSTAR": 0.00080406, "MEAN_MOTION_DOT": 4.33e-05, "MEAN_MOTION_DDOT": 0}, "tle": {"line1": "1 34007U 93036GS  25358.93570399  .00004330  00000+0  80406-3 0  9993", "line2": "2 34007  74.0198 323.4174 0044260  94.3833 266.2395 14.64870558892588"}}, "geometry": {"type": "Point", "coordinates": [-44.91788361891377, -24.272625717688687]}}, {"type": "Feature", "properties": {"norad_id": 34008, "name": "COSMOS 2251 DEB", "group": "cosmos-2251-debris", "lat": 34.42722120319049, "lon": -41.32010510195255, "alt_km": 780.2660559004062, "timestamp": "2025-12-25T09:48:52.682531+00:00", "meta": {"OBJECT_NAME": "COSMOS 2251 DEB", "OBJECT_ID": "1993-036GT", "EPOCH": "2025-12-25T02:59:57.946272", "MEAN_MOTION": 14.33154543, "ECCENTRICITY": 0.0024651, "INCLINATION": 74.0349, "RA_OF_ASC_NODE": 307.883, "ARG_OF_PERICENTER": 301.1452, "MEAN_ANOMALY": 70.1826, "EPHEMERIS_TYPE": 0, "CLASSIFICATION_TYPE": "U", "NORAD_CAT_ID": 34008, "ELEMENT_SET_NO": 999, "REV_AT_EPOCH": 88142, "BSTAR": 0.00012801, "MEAN_MOTION_DOT": 3.26e-06, "MEAN_MOTION_DDOT": 0}, "tle": {"line1": "1 34008U 93036GT  25359.12497623  .00000326  00000+0  12801-3 0  9999", "line2": "2 34008  74.0349 307.8830 0024651 301.1452  70.1826 14.33154543881427"}}, "geometry": {"type": "Point", "coordinates": [-41.32010510195255, 34.42722120319049]}}, {"type": "Feature", "properties": {"norad_id": 34009, "name": "COSMOS 2251 DEB", "group": "cosmos-2251-debris", "lat": 68.55240005296268, "lon": 0.5495736373529354, "alt_km": 763.0069197201892, "timestamp": "2025-12-25T09:48:52.682541+00:00", "meta": {"OBJECT_NAME": "COSMOS 2251 DEB", "OBJECT_ID": "1993-036GU", "EPOCH": "2025-12-24T23:43:44.531040", "MEAN_MOTION": 14.33231989, "ECCENTRICITY": 0.0026987, "INCLINATION": 74.0377, "RA_OF_ASC_NODE": 314.5514, "ARG_OF_PERICENTER": 20.6885, "MEAN_ANOMALY": 47.1968, "EPHEMERIS_TYPE": 0, "CLASSIFICATION_TYPE": "U", "NORAD_CAT_ID": 34009, "ELEMENT_SET_NO": 999, "REV_AT_EPOCH": 88121, "BSTAR": 0.00015717, "MEAN_MOTION_DOT": 4.08e-06, "MEAN_MOTION_DDOT": 0}, "tle": {"line1": "1 34009U 93036GU  25358.98870985  .00000408  00000+0  15717-3 0  9999", "line2": "2 34009  74.0377 314.5514 0026987  20.6885  47.1968 14.33231989881218"}}, "geometry": {"type": "Point", "coordinates": [0.5495736373529354, 68.55240005296268]}}, {"type": "Feature", "properties": {"norad_id": 34010, "name": "COSMOS 2251 DEB", "group": "cosmos-2251-debris", "lat": -65.35246888655331, "lon": -142.0161732625575, "alt_km": 512.4153239115922, "timestamp": "2025-12-25T09:48:52.682563+00:00", "meta": {"OBJECT_NAME": "COSMOS 2251 DEB", "OBJECT_ID": "1993-036GV", "EPOCH": "2025-12-25T03:48:40.195584", "MEAN_MOTION": 15.20766329, "ECCENTRICITY": 0.0005014, "INCLINATION": 73.9967, "RA_OF_ASC_NODE": 257.2293, "ARG_OF_PERICENTER": 58.1963, "MEAN_ANOMALY": 301.9722, "EPHEMERIS_TYPE": 0, "CLASSIFICATION_TYPE": "U", "NORAD_CAT_ID": 34010, "ELEMENT_SET_NO": 999, "REV_AT_EPOCH": 89474, "BSTAR": 0.0039606, "MEAN_MOTION_DOT": 0.00088322, "MEAN_MOTION_DDOT": 0}, "tle": {"line1": "1 34010U 93036GV  25359.15879856  .00088322  00000+0  39606-2 0  9990", "line2": "2 34010  73.9967 257.2293 0005014  58.1963 301.9722 15.20766329894740"}}, "geometry": {"type": "Point", "coordinates": [-142.0161732625575, -65.35246888655331]}}, {"type": "Feature", "properties": {"norad_id": 34011, "name": "COSMOS 2251 DEB", "group": "cosmos-2251-debris", "lat": 63.331709164985966, "lon": 91.83832419561914, "alt_km": 743.5057618997535, "timestamp": "2025-12-25T09:48:52.682575+00:00", "meta": {"OBJECT_NAME": "COSMOS 2251 DEB", "OBJECT_ID": "1993-036GW", "EPOCH": "2025-12-24T06:39:29.454336", "MEAN_MOTION": 14.4182197, "ECCENTRICITY": 0.00362711, "INCLINATION": 74.0149, "RA_OF_ASC_NODE": 308.7381, "ARG_OF_PERICENTER": 29.1397, "MEAN_ANOMALY": 331.1772, "EPHEMERIS_TYPE": 0, "CLASSIFICATION_TYPE": "U", "NORAD_CAT_ID": 34011, "ELEMENT_SET_NO": 999, "REV_AT_EPOCH": 88082, "BSTAR": 0.00081101718, "MEAN_MOTION_DOT": 2.646e-05, "MEAN_MOTION_DDOT": 0}, "tle": {"line1": "1 34011U 93036GW  25358.27742424  .00002646  00000+0  81102-3 0  9997", "line2": "2 34011  74.0149 308.7381 0036271  29.1397 331.1772 14.41821970880823"}}, "geometry": {"type": "Point", "coordinates": [91.83832419561914, 63.331709164985966]}}]}